{
  "type": "FeatureCollection",
  "features": [
    {
      "type": "Feature",
      "properties": {
        "norad_id": 31923,
        "name": "FENGYUN 1C DEB",
        "group": "fengyun-1c-debris",
        "lat": -33.62242283008084,
        "lon": -110.61408128915438,
        "alt_km": 1118.2238290623081,
        "timestamp": "2025-12-06T09:34:17.198655+00:00",
        "meta_object_name": "FENGYUN 1C DEB",
        "meta_object_id": "1999-025CMA",
        "meta_epoch": "2025-11-27T04:43:30.487296",
        "meta_mean_motion": 13.54838652,
        "meta_eccentricity": 0.0299441,
        "meta_inclination": 98.4405,
        "meta_ra_of_asc_node": 67.1712,
        "meta_arg_of_pericenter": 344.5928,
        "meta_mean_anomaly": 14.6245,
        "meta_ephemeris_type": 0,
        "meta_classification_type": "U",
        "meta_norad_cat_id": 31923,
        "meta_element_set_no": 999,
        "meta_rev_at_epoch": 63424,
        "meta_bstar": 0.0012454,
        "meta_mean_motion_dot": 1.103e-05,
        "meta_mean_motion_ddot": 0,
        "tle_line1": "1 31923U 99025CMA 25331.19688064  .00001103  00000+0  12454-2 0  9991",
        "tle_line2": "2 31923  98.4405  67.1712 0299441 344.5928  14.6245 13.54838652634244"
      },
      "geometry": {
        "type": "Point",
        "coordinates": [
          -110.61408128915438,
          -33.62242283008084
        ]
      }
    },
    {
      "type": "Feature",
      "properties": {
        "norad_id": 31924,
        "name": "FENGYUN 1C DEB",
        "group": "fengyun-1c-debris",
        "lat": -76.73181367819079,
        "lon": 177.40627266677086,
        "alt_km": 1225.5027063399339,
        "timestamp": "2025-12-06T09:34:17.198665+00:00",
        "meta_object_name": "FENGYUN 1C DEB",
        "meta_object_id": "1999-025CMB",
        "meta_epoch": "2025-12-04T22:45:58.621824",
        "meta_mean_motion": 13.63875171,
        "meta_eccentricity": 0.0273471,
        "meta_inclination": 98.4015,
        "meta_ra_of_asc_node": 137.3424,
        "meta_arg_of_pericenter": 117.5732,
        "meta_mean_anomaly": 245.3477,
        "meta_ephemeris_type": 0,
        "meta_classification_type": "U",
        "meta_norad_cat_id": 31924,
        "meta_element_set_no": 999,
        "meta_rev_at_epoch": 91361,
        "meta_bstar": 0.0025731,
        "meta_mean_motion_dot": 2.6e-05,
        "meta_mean_motion_ddot": 0,
        "tle_line1": "1 31924U 99025CMB 25338.94859516  .00002600  00000+0  25731-2 0  9999",
        "tle_line2": "2 31924  98.4015 137.3424 0273471 117.5732 245.3477 13.63875171913616"
      },
      "geometry": {
        "type": "Point",
        "coordinates": [
          177.40627266677086,
          -76.73181367819079
        ]
      }
    },
    {
      "type": "Feature",
      "properties": {
        "norad_id": 31926,
        "name": "FENGYUN 1C DEB",
        "group": "fengyun-1c-debris",
        "lat": -80.65905399986268,
        "lon": -178.09718481048085,
        "alt_km": 769.5155561538613,
        "timestamp": "2025-12-06T09:34:17.198675+00:00",
        "meta_object_name": "FENGYUN 1C DEB",
        "meta_object_id": "1999-025CMD",
        "meta_epoch": "2025-12-05T05:27:57.833280",
        "meta_mean_motion": 14.30581279,
        "meta_eccentricity": 0.00384495,
        "meta_inclination": 98.9589,
        "meta_ra_of_asc_node": 74.239,
        "meta_arg_of_pericenter": 274.7354,
        "meta_mean_anomaly": 84.9437,
        "meta_ephemeris_type": 0,
        "meta_classification_type": "U",
        "meta_norad_cat_id": 31926,
        "meta_element_set_no": 999,
        "meta_rev_at_epoch": 95120,
        "meta_bstar": 0.0047754218,
        "meta_mean_motion_dot": 0.00012536,
        "meta_mean_motion_ddot": 0,
        "tle_line1": "1 31926U 99025CMD 25339.22775270  .00012536  00000+0  47754-2 0  9995",
        "tle_line2": "2 31926  98.9589  74.2390 0038449 274.7354  84.9437 14.30581279951208"
      },
      "geometry": {
        "type": "Point",
        "coordinates": [
          -178.09718481048085,
          -80.65905399986268
        ]
      }
    },
    {
      "type": "Feature",
      "properties": {
        "norad_id": 31929,
        "name": "FENGYUN 1C DEB",
        "group": "fengyun-1c-debris",
        "lat": -80.57657948387981,
        "lon": -139.18832723696696,
        "alt_km": 834.6348044675669,
        "timestamp": "2025-12-06T09:34:17.198685+00:00",
        "meta_object_name": "FENGYUN 1C DEB",
        "meta_object_id": "1999-025CME",
        "meta_epoch": "2025-12-04T14:29:50.137728",
        "meta_mean_motion": 14.34903077,
        "meta_eccentricity": 0.0074494,
        "meta_inclination": 98.7917,
        "meta_ra_of_asc_node": 107.8069,
        "meta_arg_of_pericenter": 79.0792,
        "meta_mean_anomaly": 281.8763,
        "meta_ephemeris_type": 0,
        "meta_classification_type": "U",
        "meta_norad_cat_id": 31929,
        "meta_element_set_no": 999,
        "meta_rev_at_epoch": 70529,
        "meta_bstar": 0.00085716,
        "meta_mean_motion_dot": 2.469e-05,
        "meta_mean_motion_ddot": 0,
        "tle_line1": "1 31929U 99025CME 25338.60405252  .00002469  00000+0  85716-3 0  9994",
        "tle_line2": "2 31929  98.7917 107.8069 0074494  79.0792 281.8763 14.34903077705296"
      },
      "geometry": {
        "type": "Point",
        "coordinates": [
          -139.18832723696696,
          -80.57657948387981
        ]
      }
    },
    {
      "type": "Feature",
      "properties": {
        "norad_id": 31931,
        "name": "FENGYUN 1C DEB",
        "group": "fengyun-1c-debris",
        "lat": -42.704079398318925,
        "lon": -60.45281861685283,
        "alt_km": 830.3873988713613,
        "timestamp": "2025-12-06T09:34:17.198695+00:00",
        "meta_object_name": "FENGYUN 1C DEB",
        "meta_object_id": "1999-025CMG",
        "meta_epoch": "2025-12-02T14:33:38.327904",
        "meta_mean_motion": 13.42584114,
        "meta_eccentricity": 0.04236639,
        "meta_inclination": 97.8124,
        "meta_ra_of_asc_node": 289.3184,
        "meta_arg_of_pericenter": 296.0415,
        "meta_mean_anomaly": 59.7684,
        "meta_ephemeris_type": 0,
        "meta_classification_type": "U",
        "meta_norad_cat_id": 31931,
        "meta_element_set_no": 999,
        "meta_rev_at_epoch": 65086,
        "meta_bstar": 0.0015604157,
        "meta_mean_motion_dot": 1.474e-05,
        "meta_mean_motion_ddot": 0,
        "tle_line1": "1 31931U 99025CMG 25336.60669361  .00001474  00000+0  15604-2 0  9991",
        "tle_line2": "2 31931  97.8124 289.3184 0423663 296.0415  59.7684 13.42584114650863"
      },
      "geometry": {
        "type": "Point",
        "coordinates": [
          -60.45281861685283,
          -42.704079398318925
        ]
      }
    },
    {
      "type": "Feature",
      "properties": {
        "norad_id": 31934,
        "name": "FENGYUN 1C DEB",
        "group": "fengyun-1c-debris",
        "lat": 76.58233580633625,
        "lon": -110.27172233260002,
        "alt_km": 564.7164351463371,
        "timestamp": "2025-12-06T09:34:17.198705+00:00",
        "meta_object_name": "FENGYUN 1C DEB",
        "meta_object_id": "1999-025CMK",
        "meta_epoch": "2025-12-04T09:16:56.352576",
        "meta_mean_motion": 15.05606214,
        "meta_eccentricity": 0.0038121,
        "meta_inclination": 98.8816,
        "meta_ra_of_asc_node": 26.4564,
        "meta_arg_of_pericenter": 260.5868,
        "meta_mean_anomaly": 99.1044,
        "meta_ephemeris_type": 0,
        "meta_classification_type": "U",
        "meta_norad_cat_id": 31934,
        "meta_element_set_no": 999,
        "meta_rev_at_epoch": 60717,
        "meta_bstar": 0.0071095,
        "meta_mean_motion_dot": 0.00105581,
        "meta_mean_motion_ddot": 0,
        "tle_line1": "1 31934U 99025CMK 25338.38676334  .00105581  00000+0  71095-2 0  9999",
        "tle_line2": "2 31934  98.8816  26.4564 0038121 260.5868  99.1044 15.05606214607177"
      },
      "geometry": {
        "type": "Point",
        "coordinates": [
          -110.27172233260002,
          76.58233580633625
        ]
      }
    },
    {
      "type": "Feature",
      "properties": {
        "norad_id": 31937,
        "name": "FENGYUN 1C DEB",
        "group": "fengyun-1c-debris",
        "lat": 69.2959479681639,
        "lon": 43.48319811575607,
        "alt_km": 674.0945179120763,
        "timestamp": "2025-12-06T09:34:17.198715+00:00",
        "meta_object_name": "FENGYUN 1C DEB",
        "meta_object_id": "1999-025CMN",
        "meta_epoch": "2025-12-05T12:07:48.070272",
        "meta_mean_motion": 14.77992232,
        "meta_eccentricity": 0.0163052,
        "meta_inclination": 99.2568,
        "meta_ra_of_asc_node": 68.0213,
        "meta_arg_of_pericenter": 320.0455,
        "meta_mean_anomaly": 38.8843,
        "meta_ephemeris_type": 0,
        "meta_classification_type": "U",
        "meta_norad_cat_id": 31937,
        "meta_element_set_no": 999,
        "meta_rev_at_epoch": 65962,
        "meta_bstar": 0.0013482857,
        "meta_mean_motion_dot": 0.0001209,
        "meta_mean_motion_ddot": 0,
        "tle_line1": "1 31937U 99025CMN 25339.50541748  .00012090  00000+0  13483-2 0  9996",
        "tle_line2": "2 31937  99.2568  68.0213 0163052 320.0455  38.8843 14.77992232659628"
      },
      "geometry": {
        "type": "Point",
        "coordinates": [
          43.48319811575607,
          69.2959479681639
        ]
      }
    }
  ]
}